{"type": "FeatureCollection", "features": [ {"type": "Feature", "properties": {"norad_id": 33779, "name": "COSMOS 2251 DEB", "group": "cosmos-2251-debris", "lat": -0.6770245444285792, "lon": -12.711251406916416, "alt_km": 651.0231804880805, "timestamp": "2025-12-14T14:39:29.761610+00:00", "meta": {"OBJECT_NAME": "COSMOS 2251 DEB", "OBJECT_ID": "1993-036U", "EPOCH": "2025-12-13T23:42:44.993664", "MEAN_MOTION": 14.70491403, "ECCENTRICITY": 0.00168483, "INCLINATION": 74.0448, "RA_OF_ASC_NODE": 168.3022, "ARG_OF_PERICENTER": 201.6453, "MEAN_ANOMALY": 283.7139, "EPHEMERIS_TYPE": 0, "CLASSIFICATION_TYPE": "U", "NORAD_CAT_ID": 33779, "ELEMENT_SET_NO": 999, "REV_AT_EPOCH": 88546, "BSTAR": 0.0021514491, "MEAN_MOTION_DOT": 0.00013071, "MEAN_MOTION_DDOT": 0}, "tle": {"line1": "1 33779U 93036U   25347.98802076  .00013071  00000+0  21514-2 0  9997", "line2": "2 33779  74.0448 168.3022 0016848 201.6453 283.7139 14.70491403885465"}}, "geometry": {"type": "Point", "coordinates": [-12.711251406916416, -0.6770245444285792]}}, {"type": "Feature", "properties": {"norad_id": 33782, "name": "COSMOS 2251 DEB", "group": "cosmos-2251-debris", "lat": 71.44573183043936, "lon": 35.550395060325826, "alt_km": 757.3893673710418, "timestamp": "2025-12-14T14:39:29.761620+00:00", "meta": {"OBJECT_NAME": "COSMOS 2251 DEB", "OBJECT_ID": "1993-036X", "EPOCH": "2025-12-13T21:54:11.479104", "MEAN_MOTION": 14.404527, "ECCENTRICITY": 0.00208106, "INCLINATION": 74.0335, "RA_OF_ASC_NODE": 275.3772, "ARG_OF_PERICENTER": 339.9427, "MEAN_ANOMALY": 100.6199, "EPHEMERIS_TYPE": 0, "CLASSIFICATION_TYPE": "U", "NORAD_CAT_ID": 33782, "ELEMENT_SET_NO": 999, "REV_AT_EPOCH": 88143, "BSTAR": 0.00055602799, "MEAN_MOTION_DOT": 1.746e-05, "MEAN_MOTION_DDOT": 0}, "tle": {"line1": "1 33782U 93036X   25347.91263286  .00001746  00000+0  55603-3 0  9991", "line2": "2 33782  74.0335 275.3772 0020810 339.9427 100.6199 14.40452700881435"}}, "geometry": {"type": "Point", "coordinates": [35.550395060325826, 71.44573183043936]}}, {"type": "Feature", "properties": {"norad_id": 33785, "name": "COSMOS 2251 DEB", "group": "cosmos-2251-debris", "lat": 24.607488218244974, "lon": -131.35757037540603, "alt_km": 672.9871953565689, "timestamp": "2025-12-14T14:39:29.761630+00:00", "meta": {"OBJECT_NAME": "COSMOS 2251 DEB", "OBJECT_ID": "1993-036AA", "EPOCH": "2025-12-13T15:38:27.349152", "MEAN_MOTION": 14.70521875, "ECCENTRICITY": 0.00223746, "INCLINATION": 73.8673, "RA_OF_ASC_NODE": 58.1396, "ARG_OF_PERICENTER": 357.4397, "MEAN_ANOMALY": 121.5889, "EPHEMERIS_TYPE": 0, "CLASSIFICATION_TYPE": "U", "NORAD_CAT_ID": 33785, "ELEMENT_SET_NO": 999, "REV_AT_EPOCH": 88520, "BSTAR": 0.0022411763, "MEAN_MOTION_DOT": 0.00013649, "MEAN_MOTION_DDOT": 0}, "tle": {"line1": "1 33785U 93036AA  25347.65170543  .00013649  00000+0  22412-2 0  9994", "line2": "2 33785  73.8673  58.1396 0022374 357.4397 121.5889 14.70521875885207"}}, "geometry": {"type": "Point", "coordinates": [-131.35757037540603, 24.607488218244974]}}, {"type": "Feature", "properties": {"norad_id": 33789, "name": "COSMOS 2251 DEB", "group": "cosmos-2251-debris", "lat": 38.38633516494802, "lon": -108.85002183065951, "alt_km": 838.01050312394, "timestamp": "2025-12-14T14:39:29.761641+00:00", "meta": {"OBJECT_NAME": "COSMOS 2251 DEB", "OBJECT_ID": "1993-036AE", "EPOCH": "2025-12-13T17:48:30.015648", "MEAN_MOTION": 13.88798528, "ECCENTRICITY": 0.02401605, "INCLINATION": 74.0645, "RA_OF_ASC_NODE": 85.7052, "ARG_OF_PERICENTER": 201.1167, "MEAN_ANOMALY": 279.1508, "EPHEMERIS_TYPE": 0, "CLASSIFICATION_TYPE": "U", "NORAD_CAT_ID": 33789, "ELEMENT_SET_NO": 999, "REV_AT_EPOCH": 85109, "BSTAR": 0.0010274397, "MEAN_MOTION_DOT": 1.539e-05, "MEAN_MOTION_DDOT": 0}, "tle": {"line1": "1 33789U 93036AE  25347.74201407  .00001539  00000+0  10274-2 0  9990", "line2": "2 33789  74.0645  85.7052 0240160 201.1167 279.1508 13.88798528851090"}}, "geometry": {"type": "Point", "coordinates": [-108.85002183065951, 38.38633516494802]}}, {"type": "Feature", "properties": {"norad_id": 33791, "name": "COSMOS 2251 DEB", "group": "cosmos-2251-debris", "lat": 20.609362563603245, "lon": 40.25914069172148, "alt_km": 766.6639036859287, "timestamp": "2025-12-14T14:39:29.761650+00:00", "meta": {"OBJECT_NAME": "COSMOS 2251 DEB", "OBJECT_ID": "1993-036AG", "EPOCH": "2025-12-13T21:04:54.778656", "MEAN_MOTION": 14.43131951, "ECCENTRICITY": 0.00304673, "INCLINATION": 74.1758, "RA_OF_ASC_NODE": 35.4845, "ARG_OF_PERICENTER": 232.5421, "MEAN_ANOMALY": 305.645, "EPHEMERIS_TYPE": 0, "CLASSIFICATION_TYPE": "U", "NORAD_CAT_ID": 33791, "ELEMENT_SET_NO": 999, "REV_AT_EPOCH": 88068, "BSTAR": 0.00095094828, "MEAN_MOTION_DOT": 3.186e-05, "MEAN_MOTION_DDOT": 0}, "tle": {"line1": "1 33791U 93036AG  25347.87841179  .00003186  00000+0  95095-3 0  9998", "line2": "2 33791  74.1758  35.4845 0030467 232.5421 305.6450 14.43131951880680"}}, "geometry": {"type": "Point", "coordinates": [40.25914069172148, 20.609362563603245]}}, {"type": "Feature", "properties": {"norad_id": 33792, "name": "COSMOS 2251 DEB", "group": "cosmos-2251-debris", "lat": 37.8418805048785, "lon": 149.3922340941769, "alt_km": 1090.70701037887, "timestamp": "2025-12-14T14:39:29.761661+00:00", "meta": {"OBJECT_NAME": "COSMOS 2251 DEB", "OBJECT_ID": "1993-036AH", "EPOCH": "2025-12-14T00:02:14.271648", "MEAN_MOTION": 13.45824562, "ECCENTRICITY": 0.04271217, "INCLINATION": 73.901, "RA_OF_ASC_NODE": 343.3291, "ARG_OF_PERICENTER": 47.7476, "MEAN_ANOMALY": 17.0861, "EPHEMERIS_TYPE": 0, "CLASSIFICATION_TYPE": "U", "NORAD_CAT_ID": 33792, "ELEMENT_SET_NO": 999, "REV_AT_EPOCH": 82459, "BSTAR": 0.0010194602, "MEAN_MOTION_DOT": 1.037e-05, "MEAN_MOTION_DDOT": 0}, "tle": {"line1": "1 33792U 93036AH  25348.00155407  .00001037  00000+0  10195-2 0  9997", "line2": "2 33792  73.9010 343.3291 0427121  47.7476  17.0861 13.45824562824594"}}, "geometry": {"type": "Point", "coordinates": [149.3922340941769, 37.8418805048785]}}, {"type": "Feature", "properties": {"norad_id": 33793, "name": "COSMOS 2251 DEB", "group": "cosmos-2251-debris", "lat": 18.066242843770542, "lon": -38.859883446584185, "alt_km": 839.0497439371984, "timestamp": "2025-12-14T14:39:29.761671+00:00", "meta": {"OBJECT_NAME": "COSMOS 2251 DEB", "OBJECT_ID": "1993-036AJ", "EPOCH": "2025-12-13T21:39:53.282592", "MEAN_MOTION": 14.27727844, "ECCENTRICITY": 0.00785256, "INCLINATION": 73.9807, "RA_OF_ASC_NODE": 147.8039, "ARG_OF_PERICENTER": 297.6661, "MEAN_ANOMALY": 186.1781, "EPHEMERIS_TYPE": 0, "CLASSIFICATION_TYPE": "U", "NORAD_CAT_ID": 33793, "ELEMENT_SET_NO": 999, "REV_AT_EPOCH": 87223, "BSTAR": 0.00086546166, "MEAN_MOTION_DOT": 2.181e-05, "MEAN_MOTION_DDOT": 0}, "tle": {"line1": "1 33793U 93036AJ  25347.90270003  .00002181  00000+0  86546-3 0  9991", "line2": "2 33793  73.9807 147.8039 0078525 297.6661 186.1781 14.27727844872237"}}, "geometry": {"type": "Point", "coordinates": [-38.859883446584185, 18.066242843770542]}}, {"type": "Feature", "properties": {"norad_id": 33795, "name": "COSMOS 2251 DEB", "group": "cosmos-2251-debris", "lat": -73.89498928404556, "lon": -9.721818419158177, "alt_km": 566.3316474246403, "timestamp": "2025-12-14T14:39:29.761681+00:00", "meta": {"OBJECT_NAME": "COSMOS 2251 DEB", "OBJECT_ID": "1993-036AL", "EPOCH": "2025-12-13T23:52:43.245408", "MEAN_MOTION": 15.05580062, "ECCENTRICITY": 0.00313275, "INCLINATION": 74.0319, "RA_OF_ASC_NODE": 74.1634, "ARG_OF_PERICENTER": 156.6946, "MEAN_ANOMALY": 18.6555, "EPHEMERIS_TYPE": 0, "CLASSIFICATION_TYPE": "U", "NORAD_CAT_ID": 33795, "ELEMENT_SET_NO": 999, "REV_AT_EPOCH": 90040, "BSTAR": 0.0013298617, "MEAN_MOTION_DOT": 0.00019394, "MEAN_MOTION_DDOT": 0}, "tle": {"line1": "1 33795U 93036AL  25347.99494497  .00019394  00000+0  13299-2 0  9995", "line2": "2 33795  74.0319  74.1634 0031327 156.6946  18.6555 15.05580062900406"}}, "geometry": {"type": "Point", "coordinates": [-9.721818419158177, -73.89498928404556]}}, {"type": "Feature", "properties": {"norad_id": 33797, "name": "COSMOS 2251 DEB", "group": "cosmos-2251-debris", "lat": 47.029673423824484, "lon": -166.47642064981926, "alt_km": 653.5369500736597, "timestamp": "2025-12-14T14:39:29.761691+00:00", "meta": {"OBJECT_NAME": "COSMOS 2251 DEB", "OBJECT_ID": "1993-036AN", "EPOCH": "2025-12-13T14:02:56.846688", "MEAN_MOTION": 14.57852913, "ECCENTRICITY": 0.006064, "INCLINATION": 74.0484, "RA_OF_ASC_NODE": 33.3521, "ARG_OF_PERICENTER": 120.9955, "MEAN_ANOMALY": 29.9634, "EPHEMERIS_TYPE": 0, "CLASSIFICATION_TYPE": "U", "NORAD_CAT_ID": 33797, "ELEMENT_SET_NO": 999, "REV_AT_EPOCH": 88997, "BSTAR": 0.00052458034, "MEAN_MOTION_DOT": 2.435e-05, "MEAN_MOTION_DDOT": 0}, "tle": {"line1": "1 33797U 93036AN  25347.58538017  .00002435  00000+0  52458-3 0  9998", "line2": "2 33797  74.0484  33.3521 0060640 120.9955  29.9634 14.57852913889971"}}, "geometry": {"type": "Point", "coordinates": [-166.47642064981926, 47.029673423824484]}}, {"type": "Feature", "properties": {"norad_id": 33798, "name": "COSMOS 2251 DEB", "group": "cosmos-2251-debris", "lat": -70.71067209807343, "lon": 77.50389204722501, "alt_km": 691.7161093669283, "timestamp": "2025-12-14T14:39:29.761701+00:00", "meta": {"OBJECT_NAME": "COSMOS 2251 DEB", "OBJECT_ID": "1993-036AP", "EPOCH": "2025-12-13T21:17:54.250944", "MEAN_MOTION": 14.44616026, "ECCENTRICITY": 0.0092482, "INCLINATION": 74.0282, "RA_OF_ASC_NODE": 133.7674, "ARG_OF_PERICENTER": 254.8895, "MEAN_ANOMALY": 225.3638, "EPHEMERIS_TYPE": 0, "CLASSIFICATION_TYPE": "U", "NORAD_CAT_ID": 33798, "ELEMENT_SET_NO": 999, "REV_AT_EPOCH": 88610, "BSTAR": 0.00023860126, "MEAN_MOTION_DOT": 8.41e-06, "MEAN_MOTION_DDOT": 0}, "tle": {"line1": "1 33798U 93036AP  25347.88743346  .00000841  00000+0  23860-3 0  9999", "line2": "2 33798  74.0282 133.7674 0092482 254.8895 225.3638 14.44616026886108"}}, "geometry": {"type": "Point", "coordinates": [77.50389204722501, -70.71067209807343]}}]}